      2.10          N: GNSS NAV DATA                        RINEX VERSION / TYPE
fic2rin                                 12/26/2024 00:59:01 PGM / RUN BY / DATE
                                                            END OF HEADER
7  24 12 25  1 59 44.0 -.146138481796D-04  .102318153949D-11  .000000000000D+00
     .360000000000D+02 -.201250000000D+02  .488127475326D-08  .937727216263D+00
    -.935047864914D-06  .188763457118D-01  .865571200848D-05  .515376226425D+04
     .266384000000D+06 -.298023223877D-06  .140442947631D+01 -.372529029846D-08
     .949961108619D+00  .212687500000D+03 -.208707628221D+01 -.840213569696D-08
    -.424660545959D-09  .100000000000D+01  .234600000000D+04  .000000000000D+00
     .240000000000D+01  .000000000000D+00 -.107102096081D-07  .360000000000D+02
     .259200000000D+06  .400000000000D+01
17 24 12 26  0  0  0.0  .503349117935D-03 -.164845914696D-10  .000000000000D+00
     .820000000000D+02  .748750000000D+02  .449840166220D-08  .265462064537D+01
     .400282442570D-05  .134128886275D-01  .364147126675D-05  .515360344505D+04
     .345600000000D+06  .284984707832D-06 -.272537397168D+01 -.111758708954D-07
     .966013265439D+00  .307937500000D+03 -.124951882800D+01 -.802604860285D-08
    -.114290474943D-10  .100000000000D+01  .234600000000D+04  .000000000000D+00
     .240000000000D+01  .000000000000D+00 -.107102096081D-07  .820000000000D+02
     .338400000000D+06  .400000000000D+01
9  24 12 26  0  0  0.0  .502435490489D-03  .156887836056D-10  .000000000000D+00
     .960000000000D+02 -.265625000000D+01  .457054752451D-08 -.301960842622D+01
    -.577419996262D-07  .322075118311D-02  .736676156521D-05  .515379014587D+04
     .345600000000D+06  .745058059692D-08  .331064078422D+00  .316649675369D-07
     .960550666425D+00  .238843750000D+03  .202738863941D+01 -.795497421375D-08
     .297155234851D-09  .100000000000D+01  .234600000000D+04  .000000000000D+00
     .240000000000D+01  .000000000000D+00  .931322574615D-09  .960000000000D+02
     .338400000000D+06  .400000000000D+01
19 24 12 26  0  0  0.0  .578318722546D-03  .466116034659D-11  .000000000000D+00
     .710000000000D+02  .584062500000D+02  .461340645261D-08 -.175733142674D+01
     .308640301228D-05  .999918847810D-02  .375136733055D-05  .515360056877D+04
     .345600000000D+06 -.134110450745D-06 -.268117978265D+01 -.178813934326D-06
     .965206460266D+00  .312250000000D+03  .269620048568D+01 -.827641617453D-08
     .138934358602D-09  .100000000000D+01  .234600000000D+04  .000000000000D+00
     .240000000000D+01  .000000000000D+00 -.153668224812D-07  .710000000000D+02
     .338400000000D+06  .400000000000D+01
14 24 12 26  0  0  0.0  .567454844713D-03  .750333128963D-11  .000000000000D+00
     .237000000000D+03  .588750000000D+02  .472983987396D-08 -.946318119297D+00
     .307522714138D-05  .511370180175D-02  .916607677937D-05  .515370668030D+04
     .345600000000D+06  .100582838058D-06  .247243000103D+01 -.316649675369D-07
     .944446949058D+00  .192968750000D+03 -.286290430325D+01 -.806319300721D-08
    -.800033324599D-10  .100000000000D+01  .234600000000D+04  .000000000000D+00
     .240000000000D+01  .000000000000D+00 -.791624188423D-08  .237000000000D+03
     .338400000000D+06  .400000000000D+01
28 24 12 26  0  0  0.0 -.518315006047D-03 -.103455022327D-10  .000000000000D+00
     .101000000000D+03 -.152187500000D+02  .460269172058D-08 -.129192449288D+01
    -.668689608574D-06  .455459346995D-03  .750645995140D-05  .515378013611D+04
     .345600000000D+06  .223517417908D-07  .137313543642D+01 -.502914190292D-07
     .961001689921D+00  .232468750000D+03  .140891606612D+01 -.799890461506D-08
    -.200722646618D-09  .100000000000D+01  .234600000000D+04  .000000000000D+00
     .240000000000D+01  .000000000000D+00 -.931322574615D-08  .613000000000D+03
     .338400000000D+06  .400000000000D+01
18 24 12 26  0  0  0.0 -.659700017422D-03  .795807864051D-12  .000000000000D+00
     .590000000000D+02 -.681875000000D+02  .436232456547D-08  .652207886985D+00
    -.352412462234D-05  .479849323165D-02  .416301190853D-05  .515371795464D+04
     .345600000000D+06  .428408384323D-07 -.171877619443D+01  .298023223877D-07
     .973995986614D+00  .302593750000D+03 -.293483208214D+01 -.821784230612D-08
    -.310727228751D-09  .100000000000D+01  .234600000000D+04  .000000000000D+00
     .240000000000D+01  .000000000000D+00 -.838190317154D-08  .571000000000D+03
     .338400000000D+06  .400000000000D+01
23 24 12 26  0  0  0.0  .390933826566D-03  .761701812735D-11  .000000000000D+00
     .630000000000D+02 -.667187500000D+02  .385908931799D-08 -.466163133771D+00
    -.360421836376D-05  .498218159191D-02  .953488051891D-05  .515363002777D+04
     .345600000000D+06  .122934579849D-06 -.716336777914D+00  .633299350739D-07
     .982406975594D+00  .208937500000D+03 -.286988208163D+01 -.771567853184D-08
     .503592405216D-10  .100000000000D+01  .234600000000D+04  .000000000000D+00
     .240000000000D+01  .000000000000D+00 -.838190317154D-08  .831000000000D+03
     .338400000000D+06  .400000000000D+01
22 24 12 26  0  0  0.0 -.886283814907D-04 -.227373675443D-11  .000000000000D+00
     .148000000000D+03  .776562500000D+02  .430732227440D-08 -.311391376662D+01
     .400096178055D-05  .135494938586D-01  .925548374653D-05  .515368283272D+04
     .345600000000D+06  .894069671631D-07  .254109600950D+01  .208616256714D-06
     .959901527249D+00  .196687500000D+03 -.107582183776D+01 -.764424698500D-08
    -.717887045734D-10  .100000000000D+01  .234600000000D+04  .000000000000D+00
     .240000000000D+01  .630000000000D+02 -.111758708954D-07  .148000000000D+03
     .338400000000D+06  .400000000000D+01
26 24 12 25 23 59 44.0 -.227116979659D-04 -.145519152284D-10  .000000000000D+00
     .310000000000D+02  .532812500000D+02  .503770984084D-08 -.177139159531D+01
     .247918069363D-05  .976767984685D-02  .971369445324D-05  .515375482368D+04
     .345584000000D+06  .819563865662D-07  .236482970648D+01 -.121071934700D-06
     .929884905965D+00  .170718750000D+03  .598796042784D+00 -.812319550656D-08
    -.353586156854D-10  .100000000000D+01  .234600000000D+04  .000000000000D+00
     .240000000000D+01  .000000000000D+00  .651925802231D-08  .310000000000D+02
     .338790000000D+06  .400000000000D+01
7  24 12 25 23 59 44.0 -.145384110510D-04  .909494701773D-12  .000000000000D+00
     .000000000000D+00 -.129062500000D+02  .499842249007D-08 -.773215637021D-01
    -.549480319023D-06  .188782031182D-01  .745989382267D-05  .515375837708D+04
     .345584000000D+06 -.137835741043D-06  .140378687638D+01  .309199094772D-06
     .949938968817D+00  .234156250000D+03 -.208696401642D+01 -.848428197583D-08
    -.180007498035D-09  .100000000000D+01  .234600000000D+04  .000000000000D+00
     .240000000000D+01  .000000000000D+00 -.107102096081D-07  .000000000000D+00
     .338970000000D+06  .400000000000D+01
